0 COSMOS 2454
1 35635U 09039A   13282.16645637  .00000076  00000-0  49008-4 0   457
2 35635 082.9532 299.2338 0018691 189.9033 170.1757 13.89488064213989
0 COSMOS 2454
1 35635U 09039A   13282.45449762  .00000084  00000-0  55492-4 0   464
2 35635 082.9530 299.0154 0018707 189.0710 171.0126 13.89488181214028
0 COSMOS 2454
1 35635U 09039A   13282.59851801  .00000076  00000-0  49565-4 0   476
2 35635 082.9530 298.9063 0018729 188.6623 171.4214 13.89488105214047
0 COSMOS 2454
1 35635U 09039A   13283.10258998  .00000075  00000-0  48063-4 0   484
2 35635 082.9532 298.5242 0018752 187.1586 172.9311 13.89488157214111
0 COSMOS 2454
1 35635U 09039A   13283.17460031  .00000071  00000-0  45446-4 0   493
2 35635 082.9532 298.4696 0018775 186.9306 173.1596 13.89488112214125
0 COSMOS 2454
1 35635U 09039A   13283.60666178  .00000074  00000-0  47682-4 0   498
2 35635 082.9527 298.1419 0018827 185.6428 174.4523 13.89488189214182
0 COSMOS 2454
1 35635U 09039A   13284.11073364  .00000072  00000-0  45945-4 0   504
2 35635 082.9524 297.7600 0018841 184.1971 175.9036 13.89488226214254
0 COSMOS 2454
1 35635U 09039A   13284.47078505  .00000075  00000-0  48137-4 0   515
2 35635 082.9523 297.4869 0018861 183.1176 176.9875 13.89488283214306
0 COSMOS 2454
1 35635U 09039A   13285.47892907  .00000055  00000-0  31903-4 0   540
2 35635 082.9521 296.7227 0018950 180.2416 179.8747 13.89488155214441
0 COSMOS 2454
1 35635U 09039A   13285.83898047  .00000049  00000-0  27379-4 0   557
2 35635 082.9521 296.4497 0018959 179.2329 180.8869 13.89488110214490
0 COSMOS 2454
1 35635U 09039A   13286.12702156  .00000040  00000-0  19638-4 0   566
2 35635 082.9520 296.2313 0018985 178.3783 181.7438 13.89488010214533
0 COSMOS 2454
1 35635U 09039A   13286.55908330  .00000044  00000-0  23254-4 0   579
2 35635 082.9521 295.9039 0018983 177.0798 183.0479 13.89488087214595
0 COSMOS 2454
1 35635U 09039A   13286.77511434  .00000035  00000-0  15359-4 0   586
2 35635 082.9520 295.7400 0018985 176.5072 183.6227 13.89487972214628
0 COSMOS 2454
1 35635U 09039A   13287.13516569  .00000028  00000-0  10274-4 0   595
2 35635 082.9519 295.4669 0019004 175.4965 184.6368 13.89487917214673
0 COSMOS 2454
1 35635U 09039A   13287.42320693  .00000032  00000-0  13370-4 0   605
2 35635 082.9520 295.2487 0019024 174.6111 185.5266 13.89487984214713
0 COSMOS 2454
1 35635U 09039A   13287.63923762  .00000037  00000-0  17176-4 0   618
2 35635 082.9519 295.0846 0019038 173.9261 186.2137 13.89488034214746
0 COSMOS 2454
1 35635U 09039A   13288.14330948  .00000027  00000-0  94610-5 0   622
2 35635 082.9518 294.7023 0019093 172.5381 187.6067 13.89487954214812
0 COSMOS 2454
1 35635U 09039A   13288.43135064  .00000033  00000-0  13904-4 0   630
2 35635 082.9517 294.4840 0019117 171.7187 188.4300 13.89488022214857
0 COSMOS 2454
1 35635U 09039A   13288.64738139  .00000035  00000-0  15455-4 0   641
2 35635 082.9518 294.3205 0019103 171.1063 189.0444 13.89488051214885
0 COSMOS 2454
1 35635U 09039A   13289.15145331  .00000034  00000-0  14777-4 0   650
2 35635 082.9519 293.9385 0019115 169.6676 190.4890 13.89488081214957
0 COSMOS 2454
1 35635U 09039A   13289.51150432  .00000055  00000-0  31839-4 0   660
2 35635 082.9519 293.6655 0019183 168.5905 191.5717 13.89488381215002
0 COSMOS 2454
1 35635U 09039A   13289.72753461  .00000058  00000-0  34580-4 0   674
2 35635 082.9519 293.5017 0019184 167.9598 192.2029 13.89488441215039
0 COSMOS 2454
1 35635U 09039A   13290.15959601  .00000060  00000-0  36125-4 0   688
2 35635 082.9516 293.1743 0019223 166.7148 193.4527 13.89488509215097
0 COSMOS 2454
1 35635U 09039A   13290.30361649  .00000063  00000-0  38473-4 0   696
2 35635 082.9516 293.0651 0019220 166.3142 193.8552 13.89488561215114
0 COSMOS 2454
1 35635U 09039A   13290.51964691  .00000071  00000-0  44741-4 0   701
2 35635 082.9516 292.9015 0019275 165.6456 194.5263 13.89488698215147
0 COSMOS 2454
1 35635U 09039A   13291.09572887  .00000063  00000-0  38616-4 0   713
2 35635 082.9518 292.4648 0019309 163.9837 196.1938 13.89488658215220
0 COSMOS 2454
1 35635U 09039A   13291.45577997  .00000074  00000-0  47519-4 0   725
2 35635 082.9517 292.1918 0019317 162.9815 197.2010 13.89488836215276
0 COSMOS 2454
1 35635U 09039A   13291.59980026  .00000069  00000-0  43106-4 0   734
2 35635 082.9514 292.0822 0019291 162.6176 197.5644 13.89488771215290
0 COSMOS 2454
1 35635U 09039A   13292.10387198  .00000070  00000-0  44226-4 0   740
2 35635 082.9514 291.7001 0019315 161.2215 198.9671 13.89488855215367
0 COSMOS 2454
1 35635U 09039A   13292.39191294  .00000071  00000-0  44794-4 0   753
2 35635 082.9516 291.4817 0019325 160.4579 199.7334 13.89488867215409
0 COSMOS 2454
1 35635U 09039A   13292.67995370  .00000088  00000-0  58613-4 0   765
2 35635 082.9517 291.2633 0019306 159.4088 200.7854 13.89489056215441
0 COSMOS 2454
1 35635U 09039A   13293.11201486  .00000084  00000-0  55635-4 0   771
2 35635 082.9517 290.9357 0019311 158.2527 201.9457 13.89489101215501
0 COSMOS 2454
1 35635U 09039A   13293.47206601  .00000089  00000-0  60125-4 0   780
2 35635 082.9516 290.6628 0019315 157.1866 203.0164 13.89489209215558
0 COSMOS 2454
1 35635U 09039A   13293.68809657  .00000087  00000-0  58145-4 0   791
2 35635 082.9517 290.4992 0019330 156.5902 203.6148 13.89489217215582
0 COSMOS 2454
1 35635U 09039A   13294.12015777  .00000086  00000-0  56910-4 0   802
2 35635 082.9518 290.1718 0019341 155.4012 204.8079 13.89489261215640
0 COSMOS 2454
1 35635U 09039A   13294.48020883  .00000087  00000-0  57714-4 0   810
2 35635 082.9520 289.8989 0019408 154.2875 205.9264 13.89489331215697
0 COSMOS 2454
1 35635U 09039A   13294.55221892  .00000088  00000-0  59135-4 0   822
2 35635 082.9519 289.8442 0019412 154.1382 206.0758 13.89489352215701
0 COSMOS 2454
1 35635U 09039A   13295.12830040  .00000087  00000-0  58380-4 0   838
2 35635 082.9515 289.4076 0019436 152.5065 207.7124 13.89489389215785
0 COSMOS 2454
1 35635U 09039A   13295.41634130  .00000093  00000-0  63144-4 0   844
2 35635 082.9517 289.1892 0019506 151.6638 208.5602 13.89489514215829
0 COSMOS 2454
1 35635U 09039A   13295.56036145  .00000092  00000-0  62195-4 0   857
2 35635 082.9515 289.0798 0019536 151.2616 208.9630 13.89489526215846
0 COSMOS 2454
1 35635U 09039A   13296.06443259  .00000084  00000-0  55662-4 0   864
2 35635 082.9517 288.6979 0019594 149.8313 210.3978 13.89489529215918
